"","the_geom","OBJECTID","Name","Stacked","AnnoLine1","AnnoLine2","AnnoLine3","AnnoAngle","Borough","Longitude","Latitude","LatLong"
"1","POINT (-73.8472005205491 40.89470517661004)",1,"Wakefield",1,"Wakefield",NA,NA,0,"Bronx",-73.8472005205491,40.89470517661,"-73.8472005205491, 40.89470517661004"
"2","POINT (-73.82993910812405 40.87429419303015)",2,"Co-op City",2,"Co-op","City",NA,0,"Bronx",-73.8299391081241,40.8742941930302,"-73.82993910812405, 40.87429419303015"
"3","POINT (-73.82780644716419 40.88755567735082)",3,"Eastchester",1,"Eastchester",NA,NA,0,"Bronx",-73.8278064471642,40.8875556773508,"-73.82780644716419, 40.88755567735082"
"4","POINT (-73.90564259591689 40.895437426903875)",4,"Fieldston",1,"Fieldston",NA,NA,0,"Bronx",-73.9056425959169,40.8954374269039,"-73.90564259591689, 40.895437426903875"
"5","POINT (-73.91258546108577 40.89083449389134)",5,"Riverdale",1,"Riverdale",NA,NA,0,"Bronx",-73.9125854610858,40.8908344938913,"-73.91258546108577, 40.89083449389134"
"6","POINT (-73.90281798724611 40.88168737120525)",6,"Kingsbridge",1,"Kingsbridge",NA,NA,0,"Bronx",-73.9028179872461,40.8816873712053,"-73.90281798724611, 40.88168737120525"
"7","POINT (-73.91065965862988 40.87655077879968)",7,"Marble Hill",2,"Marble","Hill",NA,0,"Manhattan",-73.9106596586299,40.8765507787997,"-73.91065965862988, 40.87655077879968"
"8","POINT (-73.86731496814183 40.898272612138086)",8,"Woodlawn",1,"Woodlawn",NA,NA,0,"Bronx",-73.8673149681418,40.8982726121381,"-73.86731496814183, 40.898272612138086"
"9","POINT (-73.87939073956817 40.877224155994504)",9,"Norwood",1,"Norwood",NA,NA,0,"Bronx",-73.8793907395682,40.8772241559945,"-73.87939073956817, 40.877224155994504"
"10","POINT (-73.85744642974214 40.88103887819214)",10,"Williamsbridge",1,"Williamsbridge",NA,NA,0,"Bronx",-73.8574464297421,40.8810388781921,"-73.85744642974214, 40.88103887819214"
"11","POINT (-73.83579759808124 40.86685810725274)",11,"Baychester",1,"Baychester",NA,NA,0,"Bronx",-73.8357975980812,40.8668581072527,"-73.83579759808124, 40.86685810725274"
"12","POINT (-73.85475564018006 40.85741349808869)",12,"Pelham Parkway",1,"Pelham Parkway",NA,NA,0,"Bronx",-73.8547556401801,40.8574134980887,"-73.85475564018006, 40.85741349808869"
"13","POINT (-73.7864884526742 40.84724670491817)",13,"City Island",2,"City","Island",NA,0,"Bronx",-73.7864884526742,40.8472467049182,"-73.7864884526742, 40.84724670491817"
"14","POINT (-73.88551218419137 40.87018516497537)",14,"Bedford Park",2,"Bedford","Park",NA,0,"Bronx",-73.8855121841914,40.8701851649754,"-73.88551218419137, 40.87018516497537"
"15","POINT (-73.91041596191317 40.85572707719668)",15,"University Heights",2,"University","Heights",NA,0,"Bronx",-73.9104159619132,40.8557270771967,"-73.91041596191317, 40.85572707719668"
"16","POINT (-73.91967159119572 40.84789792606274)",16,"Morris Heights",2,"Morris","Heights",NA,0,"Bronx",-73.9196715911957,40.8478979260627,"-73.91967159119572, 40.84789792606274"
"17","POINT (-73.8964265598163 40.86099679638657)",17,"Fordham",1,"Fordham",NA,NA,0,"Bronx",-73.8964265598163,40.8609967963866,"-73.8964265598163, 40.86099679638657"
"18","POINT (-73.88735617532345 40.84269615786057)",18,"East Tremont",2,"East","Tremont",NA,0,"Bronx",-73.8873561753234,40.8426961578606,"-73.88735617532345, 40.84269615786057"
"19","POINT (-73.87774474910552 40.83947505672657)",19,"West Farms",2,"West","Farms",NA,0,"Bronx",-73.8777447491055,40.8394750567266,"-73.87774474910552, 40.83947505672657"
"20","POINT (-73.92610209358138 40.8366230107061)",20,"High  Bridge",2,"High","Bridge",NA,0,"Bronx",-73.9261020935814,40.8366230107061,"-73.92610209358138, 40.8366230107061"
"21","POINT (-73.90942160757443 40.81975437059498)",21,"Melrose",1,"Melrose",NA,NA,0,"Bronx",-73.9094216075744,40.819754370595,"-73.90942160757443, 40.81975437059498"
"22","POINT (-73.91609987487583 40.80623874935181)",22,"Mott Haven",1,"Mott Haven",NA,NA,0,"Bronx",-73.9160998748758,40.8062387493518,"-73.91609987487583, 40.80623874935181"
"23","POINT (-73.91322139386142 40.80166362775625)",23,"Port Morris",2,"Port","Morris",NA,0,"Bronx",-73.9132213938614,40.8016636277562,"-73.91322139386142, 40.80166362775625"
"24","POINT (-73.89578820094466 40.815099045458254)",24,"Longwood",1,"Longwood",NA,NA,0,"Bronx",-73.8957882009447,40.8150990454583,"-73.89578820094466, 40.815099045458254"
"25","POINT (-73.88331505955298 40.809729879387135)",25,"Hunts Point",2,"Hunts","Point",NA,0,"Bronx",-73.883315059553,40.8097298793871,"-73.88331505955298, 40.809729879387135"
"26","POINT (-73.90150648943066 40.82359198585537)",26,"Morrisania",1,"Morrisania",NA,NA,0,"Bronx",-73.9015064894307,40.8235919858554,"-73.90150648943066, 40.82359198585537"
"27","POINT (-73.86574609554933 40.82101219791406)",27,"Soundview",1,"Soundview",NA,NA,0,"Bronx",-73.8657460955493,40.8210121979141,"-73.86574609554933, 40.82101219791406"
"28","POINT (-73.85414416189273 40.806551120035934)",28,"Clason Point",2,"Clason","Point",NA,0,"Bronx",-73.8541441618927,40.8065511200359,"-73.85414416189273, 40.806551120035934"
"29","POINT (-73.8163500215845 40.815109258040096)",29,"Throgs Neck",1,"Throgs Neck",NA,NA,0,"Bronx",-73.8163500215845,40.8151092580401,"-73.8163500215845, 40.815109258040096"
"30","POINT (-73.82409926753857 40.84424593694742)",30,"Country Club",2,"Country","Club",NA,0,"Bronx",-73.8240992675386,40.8442459369474,"-73.82409926753857, 40.84424593694742"
"31","POINT (-73.8560031053579 40.83793782226733)",31,"Parkchester",1,"Parkchester",NA,NA,0,"Bronx",-73.8560031053579,40.8379378222673,"-73.8560031053579, 40.83793782226733"
"32","POINT (-73.8421940760445 40.840619496432744)",32,"Westchester Square",2,"Westchester","Square",NA,0,"Bronx",-73.8421940760445,40.8406194964327,"-73.8421940760445, 40.840619496432744"
"33","POINT (-73.86629918075617 40.84360847124722)",33,"Van Nest",2,"Van","Nest",NA,0,"Bronx",-73.8662991807562,40.8436084712472,"-73.86629918075617, 40.84360847124722"
"34","POINT (-73.85040178030428 40.84754906353638)",34,"Morris Park",1,"Morris Park",NA,NA,0,"Bronx",-73.8504017803043,40.8475490635364,"-73.85040178030428, 40.84754906353638"
"35","POINT (-73.88845196134812 40.85727710073898)",35,"Belmont",1,"Belmont",NA,NA,0,"Bronx",-73.8884519613481,40.857277100739,"-73.88845196134812, 40.85727710073898"
"36","POINT (-73.917190482104 40.8813949772709)",36,"Spuyten Duyvil",2,"Spuyten","Duyvil",NA,0,"Bronx",-73.917190482104,40.8813949772709,"-73.917190482104, 40.8813949772709"
"37","POINT (-73.90453054908934 40.9085428295067)",37,"North Riverdale",2,"North","Riverdale",NA,0,"Bronx",-73.9045305490893,40.9085428295067,"-73.90453054908934, 40.9085428295067"
"38","POINT (-73.83207378240478 40.85064140940339)",38,"Pelham Bay",2,"Pelham","Bay",NA,0,"Bronx",-73.8320737824048,40.8506414094034,"-73.83207378240478, 40.85064140940339"
"39","POINT (-73.82620275994081 40.82657951686926)",39,"Schuylerville",1,"Schuylerville",NA,NA,0,"Bronx",-73.8262027599408,40.8265795168693,"-73.82620275994081, 40.82657951686926"
"40","POINT (-73.81388514428627 40.82198611816354)",40,"Edgewater Park",2,"Edgewater","Park",NA,0,"Bronx",-73.8138851442863,40.8219861181635,"-73.81388514428627, 40.82198611816354"
"41","POINT (-73.84802729582742 40.81901437698835)",41,"Castle Hill",2,"Castle","Hill",NA,0,"Bronx",-73.8480272958274,40.8190143769883,"-73.84802729582742, 40.81901437698835"
"42","POINT (-73.86332361652784 40.87137078192375)",42,"Olinville",1,"Olinville",NA,NA,0,"Bronx",-73.8633236165278,40.8713707819238,"-73.86332361652784, 40.87137078192375"
"43","POINT (-73.8416119483123 40.862965624780024)",43,"Pelham Gardens",2,"Pelham","Gardens",NA,0,"Bronx",-73.8416119483123,40.86296562478,"-73.8416119483123, 40.862965624780024"
"44","POINT (-73.91558941773451 40.834283807338544)",44,"Concourse",1,"Concourse",NA,NA,0,"Bronx",-73.9155894177345,40.8342838073385,"-73.91558941773451, 40.834283807338544"
"45","POINT (-73.85053524451942 40.82977429787165)",45,"Unionport",1,"Unionport",NA,NA,0,"Bronx",-73.8505352445194,40.8297742978717,"-73.85053524451942, 40.82977429787165"
"46","POINT (-73.84808271877175 40.88456130303736)",46,"Edenwald",1,"Edenwald",NA,NA,0,"Bronx",-73.8480827187717,40.8845613030374,"-73.84808271877175, 40.88456130303736"
"47","POINT (-74.03062069353821 40.62580106501069)",47,"Bay Ridge",1,"Bay Ridge",NA,NA,0,"Brooklyn",-74.0306206935382,40.6258010650107,"-74.03062069353821, 40.62580106501069"
"48","POINT (-73.99517998380736 40.61100890202048)",48,"Bensonhurst",1,"Bensonhurst",NA,NA,0,"Brooklyn",-73.9951799838074,40.6110089020205,"-73.99517998380736, 40.61100890202048"
"49","POINT (-74.01031618527792 40.64510294925433)",49,"Sunset Park",2,"Sunset","Park",NA,0,"Brooklyn",-74.0103161852779,40.6451029492543,"-74.01031618527792, 40.64510294925433"
"50","POINT (-73.954240931274 40.730200984864744)",50,"Greenpoint",1,"Greenpoint",NA,NA,0,"Brooklyn",-73.954240931274,40.7302009848647,"-73.954240931274, 40.730200984864744"
"51","POINT (-73.97347087708452 40.59526001306597)",51,"Gravesend",1,"Gravesend",NA,NA,0,"Brooklyn",-73.9734708770845,40.595260013066,"-73.97347087708452, 40.59526001306597"
"52","POINT (-73.96509448785343 40.576825065666085)",52,"Brighton Beach",2,"Brighton","Beach",NA,0,"Brooklyn",-73.9650944878534,40.5768250656661,"-73.96509448785343, 40.576825065666085"
"53","POINT (-73.94318640482987 40.58689012678388)",53,"Sheepshead Bay",2,"Sheepshead","Bay",NA,0,"Brooklyn",-73.9431864048299,40.5868901267839,"-73.94318640482987, 40.58689012678388"
"54","POINT (-73.95743840559946 40.61443251335102)",54,"Manhattan Terrace",2,"Manhattan","Terrace",NA,0,"Brooklyn",-73.9574384055995,40.614432513351,"-73.95743840559946, 40.61443251335102"
"55","POINT (-73.95840106533912 40.63632589026681)",55,"Flatbush",1,"Flatbush",NA,NA,0,"Brooklyn",-73.9584010653391,40.6363258902668,"-73.95840106533912, 40.63632589026681"
"56","POINT (-73.9432911907359 40.67082917695298)",56,"Crown Heights",2,"Crown","Heights",NA,0,"Brooklyn",-73.9432911907359,40.670829176953,"-73.9432911907359, 40.67082917695298"
"57","POINT (-73.93610256185843 40.64171776668965)",57,"East Flatbush",1,"East Flatbush",NA,NA,0,"Brooklyn",-73.9361025618584,40.6417177666897,"-73.93610256185843, 40.64171776668965"
"58","POINT (-73.98042110559481 40.64238195800357)",58,"Kensington",1,"Kensington",NA,NA,0,"Brooklyn",-73.9804211055948,40.6423819580036,"-73.98042110559481, 40.64238195800357"
"59","POINT (-73.98007340430179 40.65694583575108)",59,"Windsor Terrace",2,"Windsor","Terrace",NA,0,"Brooklyn",-73.9800734043018,40.6569458357511,"-73.98007340430179, 40.65694583575108"
"60","POINT (-73.96485924262697 40.67682226225477)",60,"Prospect Heights",2,"Prospect","Heights",NA,0,"Brooklyn",-73.964859242627,40.6768222622548,"-73.96485924262697, 40.67682226225477"
"61","POINT (-73.91023536176615 40.66394994339758)",61,"Brownsville",1,"Brownsville",NA,NA,0,"Brooklyn",-73.9102353617662,40.6639499433976,"-73.91023536176615, 40.66394994339758"
"62","POINT (-73.95811529220936 40.70714439344255)",62,"Williamsburg",1,"Williamsburg",NA,NA,0,"Brooklyn",-73.9581152922094,40.7071443934425,"-73.95811529220936, 40.70714439344255"
"63","POINT (-73.92525797487053 40.69811611017905)",63,"Bushwick",1,"Bushwick",NA,NA,0,"Brooklyn",-73.9252579748705,40.6981161101791,"-73.92525797487053, 40.69811611017905"
"64","POINT (-73.94178488690304 40.6872316077205)",64,"Bedford Stuyvesant",1,"Bedford Stuyvesant",NA,NA,0,"Brooklyn",-73.941784886903,40.6872316077205,"-73.94178488690304, 40.6872316077205"
"65","POINT (-73.99378225496432 40.69586372272413)",65,"Brooklyn Heights",2,"Brooklyn","Heights",NA,0,"Brooklyn",-73.9937822549643,40.6958637227241,"-73.99378225496432, 40.69586372272413"
"66","POINT (-73.9985613921847 40.68791972248561)",66,"Cobble Hill",2,"Cobble","Hill",NA,0,"Brooklyn",-73.9985613921847,40.6879197224856,"-73.9985613921847, 40.68791972248561"
"67","POINT (-74.00037274122076 40.68213188564184)",67,"Carroll Gardens",2,"Carroll","Gardens",NA,0,"Brooklyn",-74.0003727412208,40.6821318856418,"-74.00037274122076, 40.68213188564184"
"68","POINT (-74.01275897473568 40.67625323025092)",68,"Red Hook",2,"Red","Hook",NA,0,"Brooklyn",-74.0127589747357,40.6762532302509,"-74.01275897473568, 40.67625323025092"
"69","POINT (-73.99444087145346 40.6739311431872)",69,"Gowanus",1,"Gowanus",NA,NA,0,"Brooklyn",-73.9944408714535,40.6739311431872,"-73.99444087145346, 40.6739311431872"
"70","POINT (-73.97290574369099 40.688527260189815)",70,"Fort Greene",2,"Fort","Greene",NA,0,"Brooklyn",-73.972905743691,40.6885272601898,"-73.97290574369099, 40.688527260189815"
"71","POINT (-73.97705030183931 40.672320522682014)",71,"Park Slope",2,"Park","Slope",NA,0,"Brooklyn",-73.9770503018393,40.672320522682,"-73.97705030183931, 40.672320522682014"
"72","POINT (-73.87583132262635 40.6846357939163)",72,"Cypress Hills",2,"Cypress","Hills",NA,0,"Brooklyn",-73.8758313226264,40.6846357939163,"-73.87583132262635, 40.6846357939163"
"73","POINT (-73.88069863917373 40.66992570084708)",73,"East New York",1,"East New York",NA,NA,0,"Brooklyn",-73.8806986391737,40.6699257008471,"-73.88069863917373, 40.66992570084708"
"74","POINT (-73.87936970045882 40.64758905230878)",74,"Starrett City",2,"Starrett","City",NA,0,"Brooklyn",-73.8793697004588,40.6475890523088,"-73.87936970045882, 40.64758905230878"
"75","POINT (-73.90209269778973 40.63556432797432)",75,"Canarsie",1,"Canarsie",NA,NA,0,"Brooklyn",-73.9020926977897,40.6355643279743,"-73.90209269778973, 40.63556432797432"
"76","POINT (-73.92911302644681 40.6304460437575)",76,"Flatlands",1,"Flatlands",NA,NA,0,"Brooklyn",-73.9291130264468,40.6304460437575,"-73.92911302644681, 40.6304460437575"
"77","POINT (-73.90818571777432 40.60633642168567)",77,"Mill Island",2,"Mill","Island",NA,0,"Brooklyn",-73.9081857177743,40.6063364216857,"-73.90818571777432, 40.60633642168567"
"78","POINT (-73.94353722891894 40.57791350308661)",78,"Manhattan Beach",2,"Manhattan","Beach",NA,0,"Brooklyn",-73.9435372289189,40.5779135030866,"-73.94353722891894, 40.57791350308661"
"79","POINT (-73.98868295821644 40.57429256471605)",79,"Coney Island",1,"Coney Island",NA,NA,0,"Brooklyn",-73.9886829582164,40.5742925647161,"-73.98868295821644, 40.57429256471605"
"80","POINT (-73.99875221443526 40.599518702822415)",80,"Bath Beach",2,"Bath","Beach",NA,0,"Brooklyn",-73.9987522144353,40.5995187028224,"-73.99875221443526, 40.599518702822415"
"81","POINT (-73.99049823044818 40.63313051275805)",81,"Borough Park",2,"Borough","Park",NA,0,"Brooklyn",-73.9904982304482,40.6331305127581,"-73.99049823044818, 40.63313051275805"
"82","POINT (-74.01931375636029 40.61921945772268)",82,"Dyker Heights",2,"Dyker","Heights",NA,0,"Brooklyn",-74.0193137563603,40.6192194577227,"-74.01931375636029, 40.61921945772268"
"83","POINT (-73.93010170691203 40.59084843390208)",83,"Gerritsen Beach",2,"Gerritsen","Beach",NA,0,"Brooklyn",-73.930101706912,40.5908484339021,"-73.93010170691203, 40.59084843390208"
"84","POINT (-73.93134404108504 40.60974777989464)",84,"Marine Park",1,"Marine Park",NA,NA,0,"Brooklyn",-73.931344041085,40.6097477798946,"-73.93134404108504, 40.60974777989464"
"85","POINT (-73.96784306216374 40.69322942188155)",85,"Clinton Hill",2,"Clinton","Hill",NA,0,"Brooklyn",-73.9678430621637,40.6932294218815,"-73.96784306216374, 40.69322942188155"
"86","POINT (-74.00787311200247 40.576375378902284)",86,"Sea Gate",2,"Sea","Gate",NA,0,"Brooklyn",-74.0078731120025,40.5763753789023,"-74.00787311200247, 40.576375378902284"
"87","POINT (-73.98346337431106 40.69084402109806)",87,"Downtown",2,"Down-","town",NA,0,"Brooklyn",-73.9834633743111,40.6908440210981,"-73.98346337431106, 40.69084402109806"
"88","POINT (-73.98357724689187 40.687241380657376)",88,"Boerum Hill",2,"Boerum","Hill",NA,0,"Brooklyn",-73.9835772468919,40.6872413806574,"-73.98357724689187, 40.687241380657376"
"89","POINT (-73.9548986707772 40.65842001746986)",89,"Prospect Lefferts Gardens",3,"Prospect","Lefferts","Gardens",0,"Brooklyn",-73.9548986707772,40.6584200174699,"-73.9548986707772, 40.65842001746986"
"90","POINT (-73.91306831787404 40.6784025547954)",90,"Ocean Hill",2,"Ocean","Hill",NA,0,"Brooklyn",-73.913068317874,40.6784025547954,"-73.91306831787404, 40.6784025547954"
"91","POINT (-73.86797598081343 40.678569957274824)",91,"City Line",2,"City","Line",NA,0,"Brooklyn",-73.8679759808134,40.6785699572748,"-73.86797598081343, 40.678569957274824"
"92","POINT (-73.89855633630324 40.615149550453125)",92,"Bergen Beach",2,"Bergen","Beach",NA,0,"Brooklyn",-73.8985563363032,40.6151495504531,"-73.89855633630324, 40.615149550453125"
"93","POINT (-73.95759523489846 40.62559589869847)",93,"Midwood",1,"Midwood",NA,NA,0,"Brooklyn",-73.9575952348985,40.6255958986985,"-73.95759523489846, 40.62559589869847"
"94","POINT (-73.96261316716055 40.64700860318523)",94,"Prospect Park South",2,"Prospect","Park South",NA,0,"Brooklyn",-73.9626131671606,40.6470086031852,"-73.96261316716055, 40.64700860318523"
"95","POINT (-73.91607483951331 40.623845244784235)",95,"Georgetown",1,"Georgetown",NA,NA,0,"Brooklyn",-73.9160748395133,40.6238452447842,"-73.91607483951331, 40.623845244784235"
"96","POINT (-73.86998779106547 40.65713927658277)",96,"Spring Creek",2,"Spring","Creek",NA,0,"Brooklyn",-73.8699877910655,40.6571392765828,"-73.86998779106547, 40.65713927658277"
"97","POINT (-73.93885815269203 40.70849241041552)",97,"East Williamsburg",2,"East","Williamsburg",NA,0,"Brooklyn",-73.938858152692,40.7084924104155,"-73.93885815269203, 40.70849241041552"
"98","POINT (-73.95880857587589 40.714822906532056)",98,"North Side",1,"North Side",NA,NA,0,"Brooklyn",-73.9588085758759,40.7148229065321,"-73.95880857587589, 40.714822906532056"
"99","POINT (-73.95800095153338 40.710861472650684)",99,"South Side",1,"South Side",NA,NA,0,"Brooklyn",-73.9580009515334,40.7108614726507,"-73.95800095153338, 40.710861472650684"
"100","POINT (-73.97164435527614 40.698790872180545)",100,"Navy Yard",2,"Navy","Yard",NA,0,"Brooklyn",-73.9716443552761,40.6987908721805,"-73.97164435527614, 40.698790872180545"
"101","POINT (-73.96836678035548 40.61305976667946)",101,"Ocean Parkway",2,"Ocean","Parkway",NA,0,"Brooklyn",-73.9683667803555,40.6130597666795,"-73.96836678035548, 40.61305976667946"
"102","POINT (-74.0319791453799 40.6147681269423)",102,"Fort Hamilton",2,"Fort","Hamilton",NA,0,"Brooklyn",-74.0319791453799,40.6147681269423,"-74.0319791453799, 40.6147681269423"
"103","POINT (-73.99427936255985 40.715618422314364)",103,"Chinatown",1,"Chinatown",NA,NA,0,"Manhattan",-73.9942793625599,40.7156184223144,"-73.99427936255985, 40.715618422314364"
"104","POINT (-73.93690027985242 40.85190252555309)",104,"Washington Heights",2,"Washington","Heights",NA,0,"Manhattan",-73.9369002798524,40.8519025255531,"-73.93690027985242, 40.85190252555309"
"105","POINT (-73.92121042203905 40.86768396449919)",105,"Inwood",1,"Inwood",NA,NA,0,"Manhattan",-73.9212104220391,40.8676839644992,"-73.92121042203905, 40.86768396449919"
"106","POINT (-73.94968791883373 40.82360428481197)",106,"Hamilton Heights",2,"Hamilton","Heights",NA,0,"Manhattan",-73.9496879188337,40.823604284812,"-73.94968791883373, 40.82360428481197"
"107","POINT (-73.95738539351888 40.81693442949784)",107,"Manhattanville",2,"Manhattanville",NA,NA,0,"Manhattan",-73.9573853935189,40.8169344294978,"-73.95738539351888, 40.81693442949784"
"108","POINT (-73.94321112603912 40.81597606742418)",108,"Central Harlem",2,"Central","Harlem",NA,0,"Manhattan",-73.9432111260391,40.8159760674242,"-73.94321112603912, 40.81597606742418"
"109","POINT (-73.94418223148531 40.79224946663037)",109,"East Harlem",2,"East","Harlem",NA,0,"Manhattan",-73.9441822314853,40.7922494666304,"-73.94418223148531, 40.79224946663037"
"110","POINT (-73.96050763135007 40.77563857330185)",110,"Upper East Side",3,"Upper","East","Side",0,"Manhattan",-73.9605076313501,40.7756385733018,"-73.96050763135007, 40.77563857330185"
"111","POINT (-73.94711784471833 40.77592984988492)",111,"Yorkville",2,"York-","ville",NA,0,"Manhattan",-73.9471178447183,40.7759298498849,"-73.94711784471833, 40.77592984988492"
"112","POINT (-73.95885968813766 40.76811265828737)",112,"Lenox Hill",2,"Lenox","Hill",NA,0,"Manhattan",-73.9588596881377,40.7681126582874,"-73.95885968813766, 40.76811265828737"
"113","POINT (-73.9494705736962 40.762403730702246)",113,"Roosevelt Island",1,"Roosevelt Island",NA,NA,56,"Manhattan",-73.9494705736962,40.7624037307022,"-73.9494705736962, 40.762403730702246"
"114","POINT (-73.9770592363061 40.7876579985349)",114,"Upper West Side",3,"Upper","West","Side",0,"Manhattan",-73.9770592363061,40.7876579985349,"-73.9770592363061, 40.7876579985349"
"115","POINT (-73.9853377700127 40.773528889421705)",115,"Lincoln Square",2,"Lincoln","Square",NA,0,"Manhattan",-73.9853377700127,40.7735288894217,"-73.9853377700127, 40.773528889421705"
"116","POINT (-73.99640768221386 40.758333686906404)",116,"Clinton",1,"Clinton",NA,NA,0,"Manhattan",-73.9964076822139,40.7583336869064,"-73.99640768221386, 40.758333686906404"
"117","POINT (-73.98166882730311 40.75469110270627)",117,"Midtown",1,"Midtown",NA,NA,0,"Manhattan",-73.9816688273031,40.7546911027063,"-73.98166882730311, 40.75469110270627"
"118","POINT (-73.97833207924134 40.74830307725222)",118,"Murray Hill",2,"Murray","Hill",NA,0,"Manhattan",-73.9783320792413,40.7483030772522,"-73.97833207924134, 40.74830307725222"
"119","POINT (-74.0031163347282 40.74403470674802)",119,"Chelsea",1,"Chelsea",NA,NA,0,"Manhattan",-74.0031163347282,40.744034706748,"-74.0031163347282, 40.74403470674802"
"120","POINT (-73.99991402945909 40.72693288536132)",120,"Greenwich Village",2,"Greenwich","Village",NA,0,"Manhattan",-73.9999140294591,40.7269328853613,"-73.99991402945909, 40.72693288536132"
"121","POINT (-73.98222616506425 40.72784677727029)",121,"East Village",2,"East","Village",NA,0,"Manhattan",-73.9822261650642,40.7278467772703,"-73.98222616506425, 40.72784677727029"
"122","POINT (-73.98089031999298 40.71780674892769)",122,"Lower East Side",3,"Lower","East","Side",0,"Manhattan",-73.980890319993,40.7178067489277,"-73.98089031999298, 40.71780674892769"
"123","POINT (-74.01068328559094 40.72152196744325)",123,"Tribeca",1,"Tribeca",NA,NA,0,"Manhattan",-74.0106832855909,40.7215219674433,"-74.01068328559094, 40.72152196744325"
"124","POINT (-73.9973046720808 40.71932379395911)",124,"Little Italy",2,"Little","Italy",NA,0,"Manhattan",-73.9973046720808,40.7193237939591,"-73.9973046720808, 40.71932379395911"
"125","POINT (-74.00065666959766 40.72218384131798)",125,"Soho",1,"Soho",NA,NA,0,"Manhattan",-74.0006566695977,40.722183841318,"-74.00065666959766, 40.72218384131798"
"126","POINT (-74.00617998126819 40.734433935724375)",126,"West Village",2,"West","Village",NA,0,"Manhattan",-74.0061799812682,40.7344339357244,"-74.00617998126819, 40.734433935724375"
"127","POINT (-73.96428617740662 40.7973070417029)",127,"Manhattan Valley",2,"Manhattan","Valley",NA,0,"Manhattan",-73.9642861774066,40.7973070417029,"-73.96428617740662, 40.7973070417029"
"128","POINT (-73.96389627905339 40.80799973816586)",128,"Morningside Heights",2,"Morningside","Heights",NA,0,"Manhattan",-73.9638962790534,40.8079997381659,"-73.96389627905339, 40.80799973816586"
"129","POINT (-73.98137594833548 40.737209832715045)",129,"Gramercy",1,"Gramercy",NA,NA,0,"Manhattan",-73.9813759483355,40.737209832715,"-73.98137594833548, 40.737209832715045"
"130","POINT (-74.01686930508625 40.71193198394569)",130,"Battery Park City",3,"Battery","Park","City",0,"Manhattan",-74.0168693050862,40.7119319839457,"-74.01686930508625, 40.71193198394569"
"131","POINT (-74.01066544521277 40.70710710727052)",131,"Financial District",2,"Financial","District",NA,0,"Manhattan",-74.0106654452128,40.7071071072705,"-74.01066544521277, 40.70710710727052"
"132","POINT (-73.91565374304241 40.768508593354966)",132,"Astoria",1,"Astoria",NA,NA,0,"Queens",-73.9156537430424,40.768508593355,"-73.91565374304241, 40.768508593354966"
"133","POINT (-73.90184166838291 40.746349088602265)",133,"Woodside",1,"Woodside",NA,NA,0,"Queens",-73.9018416683829,40.7463490886023,"-73.90184166838291, 40.746349088602265"
"134","POINT (-73.88282109164372 40.751981380073715)",134,"Jackson Heights",2,"Jackson","Heights",NA,0,"Queens",-73.8828210916437,40.7519813800737,"-73.88282109164372, 40.751981380073715"
"135","POINT (-73.88165622288396 40.744048505122066)",135,"Elmhurst",1,"Elmhurst",NA,NA,0,"Queens",-73.881656222884,40.7440485051221,"-73.88165622288396, 40.744048505122066"
"136","POINT (-73.83813764600289 40.6542252773849)",136,"Howard Beach",2,"Howard","Beach",NA,0,"Queens",-73.8381376460029,40.6542252773849,"-73.83813764600289, 40.6542252773849"
"137","POINT (-73.85682497345266 40.7423817501567)",137,"South Corona",2,"South","Corona",NA,0,"Queens",-73.8568249734527,40.7423817501567,"-73.85682497345266, 40.7423817501567"
"138","POINT (-73.8444750078899 40.725263782165065)",138,"Forest Hills",2,"Forest","Hills",NA,0,"Queens",-73.8444750078899,40.7252637821651,"-73.8444750078899, 40.725263782165065"
"139","POINT (-73.8298190582571 40.705179035414844)",139,"Kew Gardens",2,"Kew","Gardens",NA,0,"Queens",-73.8298190582571,40.7051790354148,"-73.8298190582571, 40.705179035414844"
"140","POINT (-73.83183321446894 40.69794731471767)",140,"Richmond Hill",2,"Richmond","Hill",NA,0,"Queens",-73.8318332144689,40.6979473147177,"-73.83183321446894, 40.69794731471767"
"141","POINT (-73.82936758711861 40.76116362081876)",141,"Downtown Flushing",2,"Downtown","Flushing",NA,0,"Queens",-73.8293675871186,40.7611636208188,"-73.82936758711861, 40.76116362081876"
"142","POINT (-73.93920223915512 40.75021734610532)",142,"Long Island City",3,"Long","Island","City",0,"Queens",-73.9392022391551,40.7502173461053,"-73.93920223915512, 40.75021734610532"
"143","POINT (-73.92691617561584 40.74017628351928)",143,"Sunnyside",1,"Sunnyside",NA,NA,0,"Queens",-73.9269161756158,40.7401762835193,"-73.92691617561584, 40.74017628351928"
"144","POINT (-73.86704147658779 40.764073238830946)",144,"East Elmhurst",2,"East","Elmhurst",NA,0,"Queens",-73.8670414765878,40.7640732388309,"-73.86704147658779, 40.764073238830946"
"145","POINT (-73.89621713626867 40.72542737409365)",145,"Maspeth",1,"Maspeth",NA,NA,0,"Queens",-73.8962171362687,40.7254273740936,"-73.89621713626867, 40.72542737409365"
"146","POINT (-73.90143517559596 40.70832315613862)",146,"Ridgewood",1,"Ridgewood",NA,NA,0,"Queens",-73.901435175596,40.7083231561386,"-73.90143517559596, 40.70832315613862"
"147","POINT (-73.87074167435614 40.702762429678415)",147,"Glendale",1,"Glendale",NA,NA,0,"Queens",-73.8707416743561,40.7027624296784,"-73.87074167435614, 40.702762429678415"
"148","POINT (-73.85782686905377 40.72897409480739)",148,"Rego Park",1,"Rego Park",NA,NA,0,"Queens",-73.8578268690538,40.7289740948074,"-73.85782686905377, 40.72897409480739"
"149","POINT (-73.85811046554328 40.689886879157925)",149,"Woodhaven",1,"Woodhaven",NA,NA,0,"Queens",-73.8581104655433,40.6898868791579,"-73.85811046554328, 40.689886879157925"
"150","POINT (-73.84320266173454 40.68070846826546)",150,"Ozone Park",1,"Ozone Park",NA,NA,0,"Queens",-73.8432026617345,40.6807084682655,"-73.84320266173454, 40.68070846826546"
"151","POINT (-73.80986478649048 40.66854957767199)",151,"South Ozone Park",2,"South","Ozone Park",NA,0,"Queens",-73.8098647864905,40.668549577672,"-73.80986478649048, 40.66854957767199"
"152","POINT (-73.84304528896132 40.78490274926025)",152,"College Point",2,"College","Point",NA,0,"Queens",-73.8430452889613,40.7849027492602,"-73.84304528896132, 40.78490274926025"
"153","POINT (-73.8142021661087 40.781290766026984)",153,"Whitestone",1,"Whitestone",NA,NA,0,"Queens",-73.8142021661087,40.781290766027,"-73.8142021661087, 40.781290766026984"
"154","POINT (-73.77427363068676 40.76604063281068)",154,"Bayside",1,"Bayside",NA,NA,0,"Queens",-73.7742736306868,40.7660406328107,"-73.77427363068676, 40.76604063281068"
"155","POINT (-73.79176243728068 40.761729549032665)",155,"Auburndale",1,"Auburndale",NA,NA,0,"Queens",-73.7917624372807,40.7617295490327,"-73.79176243728068, 40.761729549032665"
"156","POINT (-73.73889775580747 40.77082619282674)",156,"Little Neck",2,"Little","Neck",NA,0,"Queens",-73.7388977558075,40.7708261928267,"-73.73889775580747, 40.77082619282674"
"157","POINT (-73.74249820727337 40.766846097907674)",157,"Douglaston",1,"Douglaston",NA,NA,0,"Queens",-73.7424982072734,40.7668460979077,"-73.74249820727337, 40.766846097907674"
"158","POINT (-73.71548118999152 40.74944079974336)",158,"Glen Oaks",2,"Glen","Oaks",NA,0,"Queens",-73.7154811899915,40.7494407997434,"-73.71548118999152, 40.74944079974336"
"159","POINT (-73.7201281482691 40.72857318176679)",159,"Bellerose",1,"Bellerose",NA,NA,0,"Queens",-73.7201281482691,40.7285731817668,"-73.7201281482691, 40.72857318176679"
"160","POINT (-73.82087764933573 40.72257824422808)",160,"Kew Gardens Hills",3,"Kew","Gardens","Hills",0,"Queens",-73.8208776493357,40.7225782442281,"-73.82087764933573, 40.72257824422808"
"161","POINT (-73.78271337003271 40.734394465331334)",161,"Fresh Meadows",2,"Fresh","Meadows",NA,0,"Queens",-73.7827133700327,40.7343944653313,"-73.78271337003271, 40.734394465331334"
"162","POINT (-73.81174822458641 40.710935472522756)",162,"Briarwood",1,"Briarwood",NA,NA,0,"Queens",-73.8117482245864,40.7109354725228,"-73.81174822458641, 40.710935472522756"
"163","POINT (-73.79690165888296 40.704657360687214)",163,"Jamaica Center",2,"Jamaica","Center",NA,0,"Queens",-73.796901658883,40.7046573606872,"-73.79690165888296, 40.704657360687214"
"164","POINT (-73.75494976234339 40.74561857141858)",164,"Oakland Gardens",2,"Oakland","Gardens",NA,0,"Queens",-73.7549497623434,40.7456185714186,"-73.75494976234339, 40.74561857141858"
"165","POINT (-73.73871484578433 40.7188930921674)",165,"Queens Village",2,"Queens","Village",NA,0,"Queens",-73.7387148457843,40.7188930921674,"-73.73871484578433, 40.7188930921674"
"166","POINT (-73.75925009335602 40.71124344191908)",166,"Hollis",1,"Hollis",NA,NA,0,"Queens",-73.759250093356,40.7112434419191,"-73.75925009335602, 40.71124344191908"
"167","POINT (-73.79042613135549 40.69691125378992)",167,"South Jamaica",1,"South Jamaica",NA,NA,0,"Queens",-73.7904261313555,40.6969112537899,"-73.79042613135549, 40.69691125378992"
"168","POINT (-73.75867603727725 40.69444538522363)",168,"St. Albans",1,"St. Albans",NA,NA,0,"Queens",-73.7586760372773,40.6944453852236,"-73.75867603727725, 40.69444538522363"
"169","POINT (-73.77258787620913 40.675211395917366)",169,"Rochdale",1,"Rochdale",NA,NA,0,"Queens",-73.7725878762091,40.6752113959174,"-73.77258787620913, 40.675211395917366"
"170","POINT (-73.76042092682295 40.666230490368626)",170,"Springfield Gardens",2,"Springfield","Gardens",NA,0,"Queens",-73.7604209268229,40.6662304903686,"-73.76042092682295, 40.666230490368626"
"171","POINT (-73.73526873708033 40.69277463916089)",171,"Cambria Heights",2,"Cambria","Heights",NA,0,"Queens",-73.7352687370803,40.6927746391609,"-73.73526873708033, 40.69277463916089"
"172","POINT (-73.73526079428285 40.65981643342812)",172,"Rosedale",1,"Rosedale",NA,NA,0,"Queens",-73.7352607942829,40.6598164334281,"-73.73526079428285, 40.65981643342812"
"173","POINT (-73.7549796804388 40.60313443250093)",173,"Far Rockaway",2,"Far Rockaway",NA,NA,0,"Queens",-73.7549796804388,40.6031344325009,"-73.7549796804388, 40.60313443250093"
"174","POINT (-73.82005489110327 40.603026583512424)",174,"Broad Channel",2,"Broad","Channel",NA,0,"Queens",-73.8200548911033,40.6030265835124,"-73.82005489110327, 40.603026583512424"
"175","POINT (-73.92551196994177 40.557401288454564)",175,"Breezy Point",2,"Breezy","Point",NA,0,"Queens",-73.9255119699418,40.5574012884546,"-73.92551196994177, 40.557401288454564"
"176","POINT (-73.90228960391681 40.77592301564293)",176,"Steinway",1,"Steinway",NA,NA,0,"Queens",-73.9022896039168,40.7759230156429,"-73.90228960391681, 40.77592301564293"
"177","POINT (-73.80436451720996 40.792781403600515)",177,"Beechhurst",1,"Beechhurst",NA,NA,0,"Queens",-73.80436451721,40.7927814036005,"-73.80436451720996, 40.792781403600515"
"178","POINT (-73.77680222621588 40.7828428062456)",178,"Bay Terrace",2,"Bay","Terrace",NA,0,"Queens",-73.7768022262159,40.7828428062456,"-73.77680222621588, 40.7828428062456"
"179","POINT (-73.77613282391712 40.59564180736854)",179,"Edgemere",1,"Edgemere",NA,NA,0,"Queens",-73.7761328239171,40.5956418073685,"-73.77613282391712, 40.59564180736854"
"180","POINT (-73.7919923313695 40.58914394372975)",180,"Arverne",1,"Arverne",NA,NA,0,"Queens",-73.7919923313695,40.5891439437298,"-73.7919923313695, 40.58914394372975"
"181","POINT (-73.82236121088758 40.58280169684563)",181,"Seaside",1,"Seaside",NA,NA,0,"Queens",-73.8223612108876,40.5828016968456,"-73.82236121088758, 40.58280169684563"
"182","POINT (-73.85754672410836 40.57203673021705)",182,"Neponsit",1,"Neponsit",NA,NA,0,"Queens",-73.8575467241084,40.5720367302171,"-73.85754672410836, 40.57203673021705"
"183","POINT (-73.81276269135873 40.7641261226141)",183,"Murray Hill",2,"Murray","Hill",NA,0,"Queens",-73.8127626913587,40.7641261226141,"-73.81276269135873, 40.7641261226141"
"184","POINT (-73.70884705889253 40.74137842194548)",184,"Floral Park",1,"Floral Park",NA,NA,0,"Queens",-73.7088470588925,40.7413784219455,"-73.70884705889253, 40.74137842194548"
"185","POINT (-73.76714166714736 40.720957207644446)",185,"Holliswood",1,"Holliswood",NA,NA,0,"Queens",-73.7671416671474,40.7209572076444,"-73.76714166714736, 40.720957207644446"
"186","POINT (-73.78722696936667 40.716804830146174)",186,"Jamaica Estates",2,"Jamaica","Estates",NA,0,"Queens",-73.7872269693667,40.7168048301462,"-73.78722696936667, 40.716804830146174"
"187","POINT (-73.82580915110566 40.744572309286745)",187,"Queensboro Hill",2,"Queensboro","Hill",NA,0,"Queens",-73.8258091511057,40.7445723092867,"-73.82580915110566, 40.744572309286745"
"188","POINT (-73.79760300912679 40.72382490182924)",188,"Hillcrest",1,"Hillcrest",NA,NA,0,"Queens",-73.7976030091268,40.7238249018292,"-73.79760300912679, 40.72382490182924"
"189","POINT (-73.93157506072886 40.76170452605419)",189,"Ravenswood",1,"Ravenswood",NA,NA,0,"Queens",-73.9315750607289,40.7617045260542,"-73.93157506072886, 40.76170452605419"
"190","POINT (-73.84963782402448 40.66391841925143)",190,"Lindenwood",1,"Lindenwood",NA,NA,0,"Queens",-73.8496378240245,40.6639184192514,"-73.84963782402448, 40.66391841925143"
"191","POINT (-73.74025607989829 40.667883896602504)",191,"Laurelton",1,"Laurelton",NA,NA,0,"Queens",-73.7402560798983,40.6678838966025,"-73.74025607989829, 40.667883896602504"
"192","POINT (-73.86252471413746 40.73607457083084)",192,"Lefrak City",2,"Lefrak","City",NA,0,"Queens",-73.8625247141375,40.7360745708308,"-73.86252471413746, 40.73607457083084"
"193","POINT (-73.85401750392529 40.57615556543113)",193,"Belle Harbor",1,"Belle Harbor",NA,NA,0,"Queens",-73.8540175039253,40.5761555654311,"-73.85401750392529, 40.57615556543113"
"194","POINT (-73.84153370226193 40.58034295646135)",194,"Rockaway Park",1,"Rockaway Park",NA,NA,0,"Queens",-73.8415337022619,40.5803429564614,"-73.84153370226193, 40.58034295646135"
"195","POINT (-73.79664750844056 40.59771061565772)",195,"Somerville",1,"Somerville",NA,NA,0,"Queens",-73.7966475084406,40.5977106156577,"-73.79664750844056, 40.59771061565772"
"196","POINT (-73.7517531073116 40.66000322733616)",196,"Brookville",1,"Brookville",NA,NA,0,"Queens",-73.7517531073116,40.6600032273362,"-73.7517531073116, 40.66000322733616"
"197","POINT (-73.73889198912488 40.73301404027838)",197,"Bellaire",1,"Bellaire",NA,NA,0,"Queens",-73.7388919891249,40.7330140402784,"-73.73889198912488, 40.73301404027838"
"198","POINT (-73.85751790676454 40.75407099904894)",198,"North Corona",2,"North","Corona",NA,0,"Queens",-73.8575179067645,40.7540709990489,"-73.85751790676454, 40.75407099904894"
"199","POINT (-73.84102211234017 40.71461108151174)",199,"Forest Hills Gardens",3,"Forest","Hills","Gardens",0,"Queens",-73.8410221123402,40.7146110815117,"-73.84102211234017, 40.71461108151174"
"200","POINT (-74.07935312512804 40.64498157100444)",200,"St. George",2,"St.","George",NA,0,"Staten Island",-74.079353125128,40.6449815710044,"-74.07935312512804, 40.64498157100444"
"201","POINT (-74.08701650516633 40.64061455913515)",201,"New Brighton",2,"New","Brighton",NA,0,"Staten Island",-74.0870165051663,40.6406145591352,"-74.08701650516633, 40.64061455913515"
"202","POINT (-74.07790192660073 40.6269276253818)",202,"Stapleton",1,"Stapleton",NA,NA,0,"Staten Island",-74.0779019266007,40.6269276253818,"-74.07790192660073, 40.6269276253818"
"203","POINT (-74.06980526716148 40.61530494652765)",203,"Rosebank",1,"Rosebank",NA,NA,0,"Staten Island",-74.0698052671615,40.6153049465277,"-74.06980526716148, 40.61530494652765"
"204","POINT (-74.10718178265617 40.63187892654611)",204,"West Brighton",2,"West","Brighton",NA,0,"Staten Island",-74.1071817826562,40.6318789265461,"-74.10718178265617, 40.63187892654611"
"205","POINT (-74.08724819983736 40.62418479131304)",205,"Grymes Hill",2,"Grymes","Hill",NA,0,"Staten Island",-74.0872481998374,40.624184791313,"-74.08724819983736, 40.62418479131304"
"206","POINT (-74.11132881800887 40.59706851814676)",206,"Todt Hill",2,"Todt","Hill",NA,0,"Staten Island",-74.1113288180089,40.5970685181468,"-74.11132881800887, 40.59706851814676"
"207","POINT (-74.07955292539827 40.5802474135096)",207,"South Beach",2,"South","Beach",NA,0,"Staten Island",-74.0795529253983,40.5802474135096,"-74.07955292539827, 40.5802474135096"
"208","POINT (-74.12943426797015 40.63366930554369)",208,"Port Richmond",2,"Port","Richmond",NA,0,"Staten Island",-74.1294342679702,40.6336693055437,"-74.12943426797015, 40.63366930554369"
"209","POINT (-74.15008537046988 40.63254639048117)",209,"Mariner's Harbor",2,"Mariner's","Harbor",NA,0,"Staten Island",-74.1500853704699,40.6325463904812,"-74.15008537046988, 40.63254639048117"
"210","POINT (-74.17464532993549 40.63968297845546)",210,"Port Ivory",2,"Port","Ivory",NA,0,"Staten Island",-74.1746453299355,40.6396829784555,"-74.17464532993549, 40.63968297845546"
"211","POINT (-74.1191805853485 40.613335937667465)",211,"Castleton Corners",2,"Castleton","Corners",NA,0,"Staten Island",-74.1191805853485,40.6133359376675,"-74.1191805853485, 40.613335937667465"
"212","POINT (-74.16496031329834 40.59425237916174)",212,"New Springville",2,"New","Springville",NA,0,"Staten Island",-74.1649603132983,40.5942523791617,"-74.16496031329834, 40.59425237916174"
"213","POINT (-74.19073717538123 40.58631375103285)",213,"Travis",1,"Travis",NA,NA,0,"Staten Island",-74.1907371753812,40.5863137510328,"-74.19073717538123, 40.58631375103285"
"214","POINT (-74.11647943606387 40.57257231820636)",214,"New Dorp",2,"New","Dorp",NA,0,"Staten Island",-74.1164794360639,40.5725723182064,"-74.11647943606387, 40.57257231820636"
"215","POINT (-74.12156593771904 40.558462243288844)",215,"Oakwood",1,"Oakwood",NA,NA,0,"Staten Island",-74.121565937719,40.5584622432888,"-74.12156593771904, 40.558462243288844"
"216","POINT (-74.14932381490999 40.54948022871365)",216,"Great Kills",2,"Great","Kills",NA,0,"Staten Island",-74.14932381491,40.5494802287136,"-74.14932381490999, 40.54948022871365"
"217","POINT (-74.16433080419367 40.54223074745079)",217,"Eltingville",1,"Eltingville",NA,NA,0,"Staten Island",-74.1643308041937,40.5422307474508,"-74.16433080419367, 40.54223074745079"
"218","POINT (-74.17854866165885 40.538114174745104)",218,"Annadale",1,"Annadale",NA,NA,0,"Staten Island",-74.1785486616589,40.5381141747451,"-74.17854866165885, 40.538114174745104"
"219","POINT (-74.22135055371616 40.53745265012707)",219,"Woodrow",1,"Woodrow",NA,NA,0,"Staten Island",-74.2213505537162,40.5374526501271,"-74.22135055371616, 40.53745265012707"
"220","POINT (-74.24656934235291 40.505333761156464)",220,"Tottenville",1,"Tottenville",NA,NA,0,"Staten Island",-74.2465693423529,40.5053337611565,"-74.24656934235291, 40.505333761156464"
"221","POINT (-74.08055351790122 40.63731606711036)",221,"Tompkinsville",1,"Tompkinsville",NA,NA,0,"Staten Island",-74.0805535179012,40.6373160671104,"-74.08055351790122, 40.63731606711036"
"222","POINT (-74.09629029235465 40.619193107926804)",222,"Silver Lake",2,"Silver","Lake",NA,0,"Staten Island",-74.0962902923547,40.6191931079268,"-74.09629029235465, 40.619193107926804"
"223","POINT (-74.09712552178537 40.612760157564935)",223,"Sunnyside",1,"Sunnyside",NA,NA,0,"Staten Island",-74.0971255217854,40.6127601575649,"-74.09712552178537, 40.612760157564935"
"224","POINT (-73.96101312466787 40.64367518334101)",224,"Ditmas Park",2,"Ditmas","Park",NA,0,"Brooklyn",-73.9610131246679,40.643675183341,"-73.96101312466787, 40.64367518334101"
"225","POINT (-73.93718680559321 40.660946561881154)",225,"Wingate",1,"Wingate",NA,NA,0,"Brooklyn",-73.9371868055932,40.6609465618812,"-73.93718680559321, 40.660946561881154"
"226","POINT (-73.92688212616963 40.65557231328081)",226,"Rugby",1,"Rugby",NA,NA,0,"Brooklyn",-73.9268821261696,40.6555723132808,"-73.92688212616963, 40.65557231328081"
"227","POINT (-74.08015734936303 40.60919044434562)",227,"Park Hill",2,"Park","Hill",NA,0,"Staten Island",-74.080157349363,40.6091904443456,"-74.08015734936303, 40.60919044434562"
"228","POINT (-74.13304143951713 40.62109047275413)",228,"Westerleigh",1,"Westerleigh",NA,NA,0,"Staten Island",-74.1330414395171,40.6210904727541,"-74.13304143951713, 40.62109047275413"
"229","POINT (-74.1531524638777 40.62017151223193)",229,"Graniteville",1,"Graniteville",NA,NA,0,"Staten Island",-74.1531524638777,40.6201715122319,"-74.1531524638777, 40.62017151223193"
"230","POINT (-74.16510420241131 40.63532509911496)",230,"Arlington",1,"Arlington",NA,NA,0,"Staten Island",-74.1651042024113,40.635325099115,"-74.16510420241131, 40.63532509911496"
"231","POINT (-74.06712363225581 40.596312571276776)",231,"Arrochar",1,"Arrochar",NA,NA,0,"Staten Island",-74.0671236322558,40.5963125712768,"-74.06712363225581, 40.596312571276776"
"232","POINT (-74.07667436279057 40.59826835959995)",232,"Grasmere",1,"Grasmere",NA,NA,0,"Staten Island",-74.0766743627906,40.5982683595999,"-74.07667436279057, 40.59826835959995"
"233","POINT (-74.08751118005587 40.596328913795176)",233,"Old Town",2,"Old","Town",NA,0,"Staten Island",-74.0875111800559,40.5963289137952,"-74.08751118005587, 40.596328913795176"
"234","POINT (-74.09639905312528 40.58867294819932)",234,"Dongan Hills",2,"Dongan","Hills",NA,0,"Staten Island",-74.0963990531253,40.5886729481993,"-74.09639905312528, 40.58867294819932"
"235","POINT (-74.09348266303599 40.573526905742874)",235,"Midland Beach",2,"Midland","Beach",NA,0,"Staten Island",-74.093482663036,40.5735269057429,"-74.09348266303599, 40.573526905742874"
"236","POINT (-74.10585598545441 40.57621558711792)",236,"Grant City",2,"Grant","City",NA,0,"Staten Island",-74.1058559854544,40.5762155871179,"-74.10585598545441, 40.57621558711792"
"237","POINT (-74.10432707469131 40.56425549307338)",237,"New Dorp Beach",3,"New","Dorp","Beach",0,"Staten Island",-74.1043270746913,40.5642554930734,"-74.10432707469131, 40.56425549307338"
"238","POINT (-74.13916622175775 40.55398800858466)",238,"Bay Terrace",2,"Bay","Terrace",NA,0,"Staten Island",-74.1391662217577,40.5539880085847,"-74.13916622175775, 40.55398800858466"
"239","POINT (-74.19174105747821 40.53191192048964)",239,"Huguenot",1,"Huguenot",NA,NA,0,"Staten Island",-74.1917410574782,40.5319119204896,"-74.19174105747821, 40.53191192048964"
"240","POINT (-74.21983106616784 40.52469937611818)",240,"Pleasant Plains",2,"Pleasant","Plains",NA,0,"Staten Island",-74.2198310661678,40.5246993761182,"-74.21983106616784, 40.52469937611818"
"241","POINT (-74.22950350260034 40.506081653463085)",241,"Butler Manor",2,"Butler","Manor",NA,0,"Staten Island",-74.2295035026003,40.5060816534631,"-74.22950350260034, 40.506081653463085"
"242","POINT (-74.23215775896533 40.530531482833176)",242,"Charleston",1,"Charleston",NA,NA,0,"Staten Island",-74.2321577589653,40.5305314828332,"-74.23215775896533, 40.530531482833176"
"243","POINT (-74.21572851113959 40.549404006500765)",243,"Rossville",1,"Rossville",NA,NA,0,"Staten Island",-74.2157285111396,40.5494040065008,"-74.21572851113959, 40.549404006500765"
"244","POINT (-74.185886745839 40.549285822783254)",244,"Arden Heights",2,"Arden","Heights",NA,0,"Staten Island",-74.185886745839,40.5492858227833,"-74.185886745839, 40.549285822783254"
"245","POINT (-74.19150620964295 40.559712496342954)",245,"Greenridge",1,"Greenridge",NA,NA,0,"Staten Island",-74.191506209643,40.559712496343,"-74.19150620964295, 40.559712496342954"
"246","POINT (-74.15902208156608 40.589138948752854)",246,"Heartland Village",2,"Heartland","Village",NA,0,"Staten Island",-74.1590220815661,40.5891389487529,"-74.15902208156608, 40.589138948752854"
"247","POINT (-74.18956045519697 40.59472602746298)",247,"Chelsea",1,"Chelsea",NA,NA,0,"Staten Island",-74.189560455197,40.594726027463,"-74.18956045519697, 40.59472602746298"
"248","POINT (-74.18725638381574 40.60577868452362)",248,"Bloomfield",1,"Bloomfield",NA,NA,0,"Staten Island",-74.1872563838157,40.6057786845236,"-74.18725638381574, 40.60577868452362"
"249","POINT (-74.15940948657129 40.60959180042034)",249,"Bulls Head",2,"Bulls","Head",NA,0,"Staten Island",-74.1594094865713,40.6095918004203,"-74.15940948657129, 40.60959180042034"
"250","POINT (-73.95325646837121 40.78268256712574)",250,"Carnegie Hill",2,"Carnegie","Hill",NA,0,"Manhattan",-73.9532564683712,40.7826825671257,"-73.95325646837121, 40.78268256712574"
"251","POINT (-73.98843368023604 40.72325901885772)",251,"Noho",1,"Noho",NA,NA,0,"Manhattan",-73.988433680236,40.7232590188577,"-73.98843368023604, 40.72325901885772"
"252","POINT (-74.00541529873362 40.715228920462856)",252,"Civic Center",2,"Civic","Center",NA,0,"Manhattan",-74.0054152987336,40.7152289204629,"-74.00541529873362, 40.715228920462856"
"253","POINT (-73.98871313285254 40.748509664312245)",253,"Midtown South",2,"Midtown","South",NA,0,"Manhattan",-73.9887131328525,40.7485096643122,"-73.98871313285254, 40.748509664312245"
"254","POINT (-74.13405729862578 40.56960594275509)",254,"Richmond Town",2,"Richmond","Town",NA,0,"Staten Island",-74.1340572986258,40.5696059427551,"-74.13405729862578, 40.56960594275509"
"255","POINT (-74.06667766061778 40.609719340792886)",255,"Shore Acres",2,"Shore","Acres",NA,0,"Staten Island",-74.0666776606178,40.6097193407929,"-74.06667766061778, 40.609719340792886"
"256","POINT (-74.07264244548406 40.61917845202847)",256,"Clifton",1,"Clifton",NA,NA,0,"Staten Island",-74.0726424454841,40.6191784520285,"-74.07264244548406, 40.61917845202847"
"257","POINT (-74.08402364740365 40.604473189687944)",257,"Concord",1,"Concord",NA,NA,0,"Staten Island",-74.0840236474037,40.6044731896879,"-74.08402364740365, 40.604473189687944"
"258","POINT (-74.09776206972529 40.606794394801035)",258,"Emerson Hill",2,"Emerson","Hill",NA,0,"Staten Island",-74.0977620697253,40.606794394801,"-74.09776206972529, 40.606794394801035"
"259","POINT (-74.09805062373894 40.63563000681155)",259,"Randall Manor",2,"Randall","Manor",NA,0,"Staten Island",-74.0980506237389,40.6356300068116,"-74.09805062373894, 40.63563000681155"
"260","POINT (-74.1862233174983 40.638432837947995)",260,"Howland Hook",2,"Howland","Hook",NA,0,"Staten Island",-74.1862233174983,40.638432837948,"-74.1862233174983, 40.638432837947995"
"261","POINT (-74.14181678968897 40.63014674119387)",261,"Elm Park",2,"Elm","Park",NA,0,"Staten Island",-74.141816789689,40.6301467411939,"-74.14181678968897, 40.63014674119387"
"262","POINT (-73.91665331978055 40.65211745179353)",262,"Remsen Village",2,"Remsen","Village",NA,0,"Brooklyn",-73.9166533197806,40.6521174517935,"-73.91665331978055, 40.65211745179353"
"263","POINT (-73.885117763793 40.66274427969663)",263,"New Lots",2,"New","Lots",NA,0,"Brooklyn",-73.885117763793,40.6627442796966,"-73.885117763793, 40.66274427969663"
"264","POINT (-73.90233474295843 40.63131755039671)",264,"Paerdegat Basin",2,"Paerdegat","Basin",NA,0,"Brooklyn",-73.9023347429584,40.6313175503967,"-73.90233474295843, 40.63131755039671"
"265","POINT (-73.9151539155041 40.615974239623405)",265,"Mill Basin",2,"Mill","Basin",NA,0,"Brooklyn",-73.9151539155041,40.6159742396234,"-73.9151539155041, 40.615974239623405"
"266","POINT (-73.796464620816 40.71145964370486)",266,"Jamaica Hills",2,"Jamaica","Hills",NA,0,"Queens",-73.796464620816,40.7114596437049,"-73.796464620816, 40.71145964370486"
"267","POINT (-73.79671678028357 40.7335002542976)",267,"Utopia",1,"Utopia",NA,NA,0,"Queens",-73.7967167802836,40.7335002542976,"-73.79671678028357, 40.7335002542976"
"268","POINT (-73.80486120040544 40.73493618075482)",268,"Pomonok",1,"Pomonok",NA,NA,0,"Queens",-73.8048612004054,40.7349361807548,"-73.80486120040544, 40.73493618075482"
"269","POINT (-73.89467996270581 40.770317392998244)",269,"Astoria Heights",2,"Astoria","Heights",NA,0,"Queens",-73.8946799627058,40.7703173929982,"-73.89467996270581, 40.770317392998244"
"270","POINT (-73.90119903387674 40.83142834161551)",270,"Claremont Village",2,"Claremont","Village",NA,0,"Bronx",-73.9011990338767,40.8314283416155,"-73.90119903387674, 40.83142834161551"
"271","POINT (-73.91584652759016 40.82478049084294)",271,"Concourse Village",2,"Concourse","Village",NA,0,"Bronx",-73.9158465275902,40.8247804908429,"-73.91584652759016, 40.82478049084294"
"272","POINT (-73.91655551964426 40.843826176716576)",272,"Mount Eden",2,"Mount","Eden",NA,0,"Bronx",-73.9165555196443,40.8438261767166,"-73.91655551964426, 40.843826176716576"
"273","POINT (-73.90829930881995 40.84884160724669)",273,"Mount Hope",2,"Mount","Hope",NA,0,"Bronx",-73.9082993088199,40.8488416072467,"-73.90829930881995, 40.84884160724669"
"274","POINT (-73.9635561409431 40.76028033131378)",274,"Sutton Place",2,"Sutton","Place",NA,0,"Manhattan",-73.9635561409431,40.7602803313138,"-73.9635561409431, 40.76028033131378"
"275","POINT (-73.95386782130753 40.74341409007358)",275,"Hunters Point",2,"Hunters","Point",NA,0,"Queens",-73.9538678213075,40.7434140900736,"-73.95386782130753, 40.74341409007358"
"276","POINT (-73.96770824581843 40.75204236950726)",276,"Turtle Bay",2,"Turtle","Bay",NA,0,"Manhattan",-73.9677082458184,40.7520423695073,"-73.96770824581843, 40.75204236950726"
"277","POINT (-73.97121928722272 40.74691741074023)",277,"Tudor City",2,"Tudor","City",NA,0,"Manhattan",-73.9712192872227,40.7469174107402,"-73.97121928722272, 40.74691741074023"
"278","POINT (-73.9740517046921 40.73099955477065)",278,"Stuyvesant Town",2,"Stuyvesant","Town",NA,0,"Manhattan",-73.9740517046921,40.7309995547706,"-73.9740517046921, 40.73099955477065"
"279","POINT (-73.99094710528267 40.73967304763847)",279,"Flatiron",1,"Flatiron",NA,NA,0,"Manhattan",-73.9909471052827,40.7396730476385,"-73.99094710528267, 40.73967304763847"
"280","POINT (-73.9181928643169 40.745651806080794)",280,"Sunnyside Gardens",2,"Sunnyside","Gardens",NA,0,"Queens",-73.9181928643169,40.7456518060808,"-73.9181928643169, 40.745651806080794"
"281","POINT (-73.93244235260185 40.73725071694501)",281,"Blissville",1,"Blissville",NA,NA,0,"Queens",-73.9324423526019,40.737250716945,"-73.93244235260185, 40.73725071694501"
"282","POINT (-73.99550751888422 40.70328109093018)",282,"Fulton Ferry",2,"Fulton","Ferry",NA,0,"Brooklyn",-73.9955075188842,40.7032810909302,"-73.99550751888422, 40.70328109093018"
"283","POINT (-73.981116035924 40.703321498828785)",283,"Vinegar Hill",2,"Vinegar","Hill",NA,0,"Brooklyn",-73.981116035924,40.7033214988288,"-73.981116035924, 40.703321498828785"
"284","POINT (-73.93053108817347 40.67503986503241)",284,"Weeksville",1,"Weeksville",NA,NA,0,"Brooklyn",-73.9305310881735,40.6750398650324,"-73.93053108817347, 40.67503986503241"
"285","POINT (-73.90331684852606 40.67786104769535)",285,"Broadway Junction",2,"Broadway","Junction",NA,0,"Brooklyn",-73.9033168485261,40.6778610476954,"-73.90331684852606, 40.67786104769535"
"286","POINT (-73.98875280745047 40.70317632822696)",286,"Dumbo",1,"Dumbo",NA,NA,0,"Brooklyn",-73.9887528074505,40.703176328227,"-73.98875280745047, 40.70317632822696"
"287","POINT (-74.12059399718008 40.60180957631448)",287,"Manor Heights",2,"Manor","Heights",NA,0,"Staten Island",-74.1205939971801,40.6018095763145,"-74.12059399718008, 40.60180957631448"
"288","POINT (-74.13208447484305 40.60370692627375)",288,"Willowbrook",1,"Willowbrook",NA,NA,0,"Staten Island",-74.1320844748431,40.6037069262738,"-74.13208447484305, 40.60370692627375"
"289","POINT (-74.21776636068574 40.5411399220918)",289,"Sandy Ground",2,"Sandy","Ground",NA,0,"Staten Island",-74.2177663606857,40.5411399220918,"-74.21776636068574, 40.5411399220918"
"290","POINT (-74.12727240604953 40.579118742961256)",290,"Egbertville",1,"Egbertville",NA,NA,0,"Staten Island",-74.1272724060495,40.5791187429613,"-74.12727240604953, 40.579118742961256"
"291","POINT (-73.89213760232829 40.567375889570364)",291,"Roxbury",1,"Roxbury",NA,NA,0,"Queens",-73.8921376023283,40.5673758895704,"-73.89213760232829, 40.567375889570364"
"292","POINT (-73.9591845942871 40.59852509513729)",292,"Homecrest",1,"Homecrest",NA,NA,0,"Brooklyn",-73.9591845942871,40.5985250951373,"-73.9591845942871, 40.59852509513729"
"293","POINT (-73.8811431920061 40.71641451115823)",293,"Middle Village",2,"Middle","Village",NA,0,"Queens",-73.8811431920061,40.7164145111582,"-73.8811431920061, 40.71641451115823"
"294","POINT (-74.20152556457666 40.526264067348166)",294,"Prince's Bay",2,"Prince's","Bay",NA,0,"Staten Island",-74.2015255645767,40.5262640673482,"-74.20152556457666, 40.526264067348166"
"295","POINT (-74.13792663771576 40.576506293794935)",295,"Lighthouse Hill",2,"Lighthouse","Hill",NA,0,"Staten Island",-74.1379266377158,40.5765062937949,"-74.13792663771576, 40.576506293794935"
"296","POINT (-74.22957080626948 40.519541457489126)",296,"Richmond Valley",2,"Richmond","Valley",NA,0,"Staten Island",-74.2295708062695,40.5195414574891,"-74.22957080626948, 40.519541457489126"
"297","POINT (-73.8266775713865 40.790601556701525)",297,"Malba",1,"Malba",NA,NA,0,"Queens",-73.8266775713865,40.7906015567015,"-73.8266775713865, 40.790601556701525"
"298","POINT (-73.8902809854761 40.68248551101694)",298,"Highland Park",2,"Highland","Park",NA,0,"Brooklyn",-73.8902809854761,40.6824855110169,"-73.8902809854761, 40.68248551101694"
"299","POINT (-73.948415153289 40.609377701137696)",299,"Madison",1,"Madison",NA,NA,0,"Brooklyn",-73.948415153289,40.6093777011377,"-73.948415153289, 40.609377701137696"
